{
  "norad_id": 48791,
  "name": "ONEWEB-0212",
  "history": [
    {
      "epoch": "2026-03-28T21:26:27.013344Z",
      "apogee_km": 1203.0451098565,
      "perigee_km": 1200.4976542474596,
      "latitude_deg": 1.8121488064721787e-05,
      "longitude_deg": 127.28966525107568,
      "height_km": 1204.6570561105088,
      "semi_major_axis_km": 7579.90838205198,
      "eccentricity": 0.00016804,
      "inclination_deg": 87.8935,
      "raan_deg": 275.2095,
      "arg_perigee_deg": 89.6927,
      "mean_anomaly_deg": 270.4396,
      "mean_motion_rev_day": 13.1554839
    },
    {
      "epoch": "2026-03-28T23:15:58.327776Z",
      "apogee_km": 1203.046447878637,
      "perigee_km": 1200.4935352038874,
      "latitude_deg": -2.380760650266797e-05,
      "longitude_deg": 99.81912180529203,
      "height_km": 1204.6622983959976,
      "semi_major_axis_km": 7579.906991541262,
      "eccentricity": 0.0001684,
      "inclination_deg": 87.8935,
      "raan_deg": 275.1944,
      "arg_perigee_deg": 89.991,
      "mean_anomaly_deg": 270.1413,
      "mean_motion_rev_day": 13.15548752
    },
    {
      "epoch": "2026-03-30T00:49:17.200704Z",
      "apogee_km": 1203.0406013949978,
      "perigee_km": 1200.4967850443518,
      "latitude_deg": 5.0206649393593065e-05,
      "longitude_deg": 75.22807133386668,
      "height_km": 1204.6920880368712,
      "semi_major_axis_km": 7579.9056932196745,
      "eccentricity": 0.0001678,
      "inclination_deg": 87.8936,
      "raan_deg": 274.9815,
      "arg_perigee_deg": 91.3912,
      "mean_anomaly_deg": 268.7411,
      "mean_motion_rev_day": 13.1554909
    },
    {
      "epoch": "2026-03-30T06:17:51.196704Z",
      "apogee_km": 1203.0357441428714,
      "perigee_km": 1200.499053336789,
      "latitude_deg": 4.824260670380996e-06,
      "longitude_deg": -7.184175909535748,
      "height_km": 1204.693575865691,
      "semi_major_axis_km": 7579.90439873983,
      "eccentricity": 0.00016733,
      "inclination_deg": 87.8936,
      "raan_deg": 274.9358,
      "arg_perigee_deg": 91.5201,
      "mean_anomaly_deg": 268.6121,
      "mean_motion_rev_day": 13.15549427
    },
    {
      "epoch": "2026-03-30T13:35:56.624640Z",
      "apogee_km": 1203.043410110542,
      "perigee_km": 1200.4945909188082,
      "latitude_deg": 1.3442749657649333e-05,
      "longitude_deg": -117.06745391108727,
      "height_km": 1204.695817850051,
      "semi_major_axis_km": 7579.906000514675,
      "eccentricity": 0.00016813,
      "inclination_deg": 87.8935,
      "raan_deg": 274.875,
      "arg_perigee_deg": 91.5424,
      "mean_anomaly_deg": 268.5899,
      "mean_motion_rev_day": 13.1554901
    },
    {
      "epoch": "2026-03-30T20:54:02.031840Z",
      "apogee_km": 1203.0454873083027,
      "perigee_km": 1200.4942422557551,
      "latitude_deg": -3.761014598179144e-06,
      "longitude_deg": 133.04935377892352,
      "height_km": 1204.6996793845237,
      "semi_major_axis_km": 7579.906864782029,
      "eccentricity": 0.00016829,
      "inclination_deg": 87.8935,
      "raan_deg": 274.8142,
      "arg_perigee_deg": 91.6756,
      "mean_anomaly_deg": 268.4567,
      "mean_motion_rev_day": 13.15548785
    },
    {
      "epoch": "2026-03-31T18:48:18.143712Z",
      "apogee_km": 1203.0528648569216,
      "perigee_km": 1200.4832770378698,
      "latitude_deg": 5.9218506301289245e-05,
      "longitude_deg": 163.40013968882872,
      "height_km": 1204.7010957775071,
      "semi_major_axis_km": 7579.905070947396,
      "eccentricity": 0.0001695,
      "inclination_deg": 87.8934,
      "raan_deg": 274.6317,
      "arg_perigee_deg": 91.8082,
      "mean_anomaly_deg": 268.3243,
      "mean_motion_rev_day": 13.15549252
    }
  ]
}